OBJECT_NAME,OBJECT_ID,EPOCH,MEAN_MOTION,ECCENTRICITY,INCLINATION,RA_OF_ASC_NODE,ARG_OF_PERICENTER,MEAN_ANOMALY,EPHEMERIS_TYPE,CLASSIFICATION_TYPE,NORAD_CAT_ID,ELEMENT_SET_NO,REV_AT_EPOCH,BSTAR,MEAN_MOTION_DOT,MEAN_MOTION_DDOT
STARLINK-6141,2023-090M,2026-07-15T06:34:51.867552,15.27575091,.00011349,43.0023,281.1268,262.7042,97.3681,0,U,57112,999,16984,-.2610338E-5,-.334E-5,0
STARLINK-6142,2023-090N,2026-07-15T05:59:41.592480,15.27581129,.00006127,43.0005,280.9432,199.4687,160.6141,0,U,57113,999,16984,-.16916554E-4,-.727E-5,0
STARLINK-6125,2023-090P,2026-07-15T17:04:21.448704,15.27576979,.00012515,42.9999,278.3869,270.9326,89.1382,0,U,57114,999,16991,.30996047E-4,.591E-5,0
STARLINK-6085,2023-090Q,2026-07-15T05:58:18.814368,15.18405243,.00208231,42.9973,275.8965,306.6441,53.2492,0,U,57115,999,16990,.22886324E-3,.4581E-4,0
STARLINK-6129,2023-090R,2026-07-15T07:22:45.851232,15.27575218,.00017781,43.0012,280.5206,277.7537,82.3113,0,U,57116,999,16985,.16396971E-4,.189E-5,0
STARLINK-6148,2023-090S,2026-07-15T05:50:27.535200,15.27575295,.00015256,43.0016,280.8941,273.6864,86.3813,0,U,57117,999,16983,.31992354E-4,.618E-5,0
STARLINK-6150,2023-090U,2026-07-15T06:47:49.089120,15.27574820,.00010135,43.0022,281.1849,243.7617,116.3130,0,U,57119,999,16984,-.82352573E-4,-.2527E-4,0
STARLINK-6147,2023-090V,2026-07-15T06:14:30.524064,15.27561846,.00012785,43.0014,281.0152,268.9022,91.1683,0,U,57120,999,16984,.17812511E-4,.228E-5,0
STARLINK-6152,2023-090W,2026-07-15T07:20:54.658752,15.27578105,.00017019,43.0001,280.5025,276.0459,84.0198,0,U,57121,999,16966,.23294011E-4,.379E-5,0
STARLINK-6149,2023-090X,2026-07-15T06:58:55.515648,15.27572836,.00015786,43.0033,281.2428,288.3772,71.6908,0,U,57122,999,16984,-.6011868E-5,-.428E-5,0
STARLINK-6154,2023-090Y,2026-07-15T06:25:36.559200,15.27577142,.00008686,43.0008,281.0701,263.6234,96.4519,0,U,57123,999,16965,.615458E-6,-.245E-5,0
STARLINK-6146,2023-090Z,2026-07-15T06:20:05.023392,15.27563263,.0001214,43.0004,281.0432,276.7603,83.3111,0,U,57124,999,16984,-.40527822E-4,-.1376E-4,0
STARLINK-6100,2023-090AA,2026-07-15T06:01:08.975712,15.27574079,.00018811,43.0036,262.8217,282.0972,77.9669,0,U,57125,999,16986,.7278593E-5,-.62E-6,0
STARLINK-6167,2023-090AB,2026-07-15T05:35:53.099808,15.27561742,.00039896,43.0090,281.6701,311.8495,48.2016,0,U,57126,999,16983,-.44441491E-4,-.1486E-4,0
STARLINK-6165,2023-090AC,2026-07-15T06:03:24.321312,15.27579296,.00013861,43.0023,280.9544,274.5234,85.5459,0,U,57127,999,16965,.29387954E-4,.547E-5,0
STARLINK-6163,2023-090AD,2026-07-15T05:52:18.717312,15.27584436,.00015551,43.0003,280.8922,274.4035,85.6639,0,U,57128,999,16965,.70475881E-4,.1678E-4,0
STARLINK-6170,2023-090AE,2026-07-15T05:33:35.867232,15.27575391,.00017077,43.0014,263.5409,302.4190,57.6496,0,U,57129,999,16985,.1943899E-5,-.209E-5,0
STARLINK-6172,2023-090AF,2026-07-15T07:32:01.013568,15.27581566,.00011995,43.0015,280.5584,198.5427,161.5381,0,U,57130,999,16966,-.18616705E-3,-.5381E-4,0
STARLINK-6162,2023-090AG,2026-07-15T05:44:30.735168,15.27564594,.00019934,43.0052,262.7426,273.6351,86.4273,0,U,57131,999,16986,-.33172723E-4,-.1175E-4,0
STARLINK-6128,2023-090AH,2026-07-15T07:43:06.837024,15.27579270,.00012757,43.0016,280.6146,273.9195,86.1511,0,U,57132,999,16966,.23502485E-4,.385E-5,0
STARLINK-6143,2023-090AJ,2026-07-15T12:23:19.312800,15.27574199,.0001569,43.0022,261.3770,268.7859,91.2813,0,U,57133,999,16990,.36856E-4,.752E-5,0
STARLINK-6133,2023-090AK,2026-07-15T05:38:56.830272,15.27571471,.00011479,43.0019,262.7143,289.6110,70.4618,0,U,57134,999,16986,-.13609889E-4,-.636E-5,0
STARLINK-6127,2023-090AL,2026-07-15T05:51:53.650944,15.27585684,.00013529,43.0021,262.7759,277.5503,82.5195,0,U,57135,999,16986,.3091782E-5,-.177E-5,0
STARLINK-6112,2023-090AM,2026-07-15T05:50:02.592384,15.27585690,.00012928,43.0033,262.7684,281.4664,78.6042,0,U,57136,999,16988,-.5137627E-5,-.404E-5,0
STARLINK-5347,2023-090AN,2026-07-15T05:37:05.268864,15.27574758,.00013402,43.0024,262.7023,289.0116,71.0591,0,U,57137,999,16986,.955652E-6,-.236E-5,0
STARLINK-5336,2023-090AP,2026-07-15T12:12:13.338144,15.27577444,.0001636,43.0025,261.3198,282.1857,77.8811,0,U,57138,999,16990,.13899E-4,.12E-5,0
STARLINK-5355,2023-090AQ,2026-07-15T04:06:37.368576,15.27580496,.00016982,43.0072,263.0923,281.9576,78.1085,0,U,57139,999,16985,-.24001175E-4,-.923E-5,0
STARLINK-5357,2023-090AS,2026-07-15T04:08:29.170176,15.27585710,.00013846,43.0032,263.0959,157.4470,202.6442,0,U,57141,999,16985,-.13439869E-3,-.3959E-4,0
STARLINK-5361,2023-090AT,2026-07-15T05:48:11.742912,15.27584664,.000114,43.0063,262.7560,288.4615,71.6113,0,U,57142,999,16986,-.22279462E-3,-.6389E-4,0
STARLINK-5358,2023-090AU,2026-07-15T05:53:44.337120,15.27575740,.00017054,43.0020,262.7807,274.1439,85.9218,0,U,57143,999,16986,.23823301E-4,.393E-5,0
