STARLINK-6141           
1 57112U 23090M   26196.27421143 -.00000334  00000+0 -26103-5 0  9996
2 57112  43.0023 281.1268 0001134 262.7042  97.3681 15.27575091169844
STARLINK-6142           
1 57113U 23090N   26196.24978695 -.00000727  00000+0 -16917-4 0  9990
2 57113  43.0005 280.9432 0000612 199.4687 160.6141 15.27581129169840
STARLINK-6125           
1 57114U 23090P   26196.71135935  .00000591  00000+0  30996-4 0  9995
2 57114  42.9999 278.3869 0001251 270.9326  89.1382 15.27576979169918
STARLINK-6085           
1 57115U 23090Q   26196.24882887  .00004581  00000+0  22886-3 0  9990
2 57115  42.9973 275.8965 0020823 306.6441  53.2492 15.18405243169909
STARLINK-6129           
1 57116U 23090R   26196.30747513  .00000189  00000+0  16397-4 0  9995
2 57116  43.0012 280.5206 0001778 277.7537  82.3113 15.27575218169856
STARLINK-6148           
1 57117U 23090S   26196.24337425  .00000618  00000+0  31992-4 0  9991
2 57117  43.0016 280.8941 0001525 273.6864  86.3813 15.27575295169832
STARLINK-6150           
1 57119U 23090U   26196.28320705 -.00002527  00000+0 -82353-4 0  9990
2 57119  43.0022 281.1849 0001013 243.7617 116.3130 15.27574820169848
STARLINK-6147           
1 57120U 23090V   26196.26007551  .00000228  00000+0  17813-4 0  9994
2 57120  43.0014 281.0152 0001278 268.9022  91.1683 15.27561846169846
STARLINK-6152           
1 57121U 23090W   26196.30618818  .00000379  00000+0  23294-4 0  9991
2 57121  43.0001 280.5025 0001701 276.0459  84.0198 15.27578105169669
STARLINK-6149           
1 57122U 23090X   26196.29092032 -.00000428  00000+0 -60119-5 0  9999
2 57122  43.0033 281.2428 0001578 288.3772  71.6908 15.27572836169842
STARLINK-6154           
1 57123U 23090Y   26196.26778425 -.00000245  00000+0  61546-6 0  9996
2 57123  43.0008 281.0701 0000868 263.6234  96.4519 15.27577142169654
STARLINK-6146           
1 57124U 23090Z   26196.26394703 -.00001376  00000+0 -40528-4 0  9992
2 57124  43.0004 281.0432 0001214 276.7603  83.3111 15.27563263169846
STARLINK-6100           
1 57125U 23090AA  26196.25079833 -.00000062  00000+0  72786-5 0  9998
2 57125  43.0036 262.8217 0001881 282.0972  77.9669 15.27574079169865
STARLINK-6167           
1 57126U 23090AB  26196.23325347 -.00001486  00000+0 -44441-4 0  9999
2 57126  43.0090 281.6701 0003989 311.8495  48.2016 15.27561742169832
STARLINK-6165           
1 57127U 23090AC  26196.25236483  .00000547  00000+0  29388-4 0  9992
2 57127  43.0023 280.9544 0001386 274.5234  85.5459 15.27579296169659
STARLINK-6163           
1 57128U 23090AD  26196.24466108  .00001678  00000+0  70476-4 0  9991
2 57128  43.0003 280.8922 0001555 274.4035  85.6639 15.27584436169656
STARLINK-6170           
1 57129U 23090AE  26196.23166513 -.00000209  00000+0  19439-5 0  9991
2 57129  43.0014 263.5409 0001707 302.4190  57.6496 15.27575391169852
STARLINK-6172           
1 57130U 23090AF  26196.31390062 -.00005381  00000+0 -18617-3 0  9992
2 57130  43.0015 280.5584 0001199 198.5427 161.5381 15.27581566169668
STARLINK-6162           
1 57131U 23090AG  26196.23924462 -.00001175  00000+0 -33173-4 0  9993
2 57131  43.0052 262.7426 0001993 273.6351  86.4273 15.27564594169869
STARLINK-6128           
1 57132U 23090AH  26196.32160691  .00000385  00000+0  23502-4 0  9995
2 57132  43.0016 280.6146 0001275 273.9195  86.1511 15.27579270169667
STARLINK-6143           
1 57133U 23090AJ  26196.51619575  .00000752  00000+0  36856-4 0  9991
2 57133  43.0022 261.3770 0001569 268.7859  91.2813 15.27574199169903
STARLINK-6133           
1 57134U 23090AK  26196.23537998 -.00000636  00000+0 -13610-4 0  9995
2 57134  43.0019 262.7143 0001147 289.6110  70.4618 15.27571471169860
STARLINK-6127           
1 57135U 23090AL  26196.24437096 -.00000177  00000+0  30918-5 0  9995
2 57135  43.0021 262.7759 0001352 277.5503  82.5195 15.27585684169862
STARLINK-6112           
1 57136U 23090AM  26196.24308556 -.00000404  00000+0 -51376-5 0  9999
2 57136  43.0033 262.7684 0001292 281.4664  78.6042 15.27585690169884
STARLINK-5347           
1 57137U 23090AN  26196.23408876 -.00000236  00000+0  95565-6 0  9996
2 57137  43.0024 262.7023 0001340 289.0116  71.0591 15.27574758169869
STARLINK-5336           
1 57138U 23090AP  26196.50848771  .00000120  00000+0  13899-4 0  9998
2 57138  43.0025 261.3198 0001636 282.1857  77.8811 15.27577444169902
STARLINK-5355           
1 57139U 23090AQ  26196.17126584 -.00000923  00000+0 -24001-4 0  9993
2 57139  43.0072 263.0923 0001698 281.9576  78.1085 15.27580496169855
STARLINK-5357           
1 57141U 23090AS  26196.17255984 -.00003959  00000+0 -13440-3 0  9999
2 57141  43.0032 263.0959 0001384 157.4470 202.6442 15.27585710169850
STARLINK-5361           
1 57142U 23090AT  26196.24180258 -.00006389  00000+0 -22279-3 0  9999
2 57142  43.0063 262.7560 0001140 288.4615  71.6113 15.27584664169862
STARLINK-5358           
1 57143U 23090AU  26196.24565205  .00000393  00000+0  23823-4 0  9993
2 57143  43.0020 262.7807 0001705 274.1439  85.9218 15.27575740169862
